FLOCK 4G-33             
1 62685U 25009CE  26197.76287601  .00003390  00000+0  13541-3 0  9996
2 62685  97.3942 277.2995 0004842 207.7395 152.3586 15.25809428 83314
FLOCK 4H-1              
1 66704U 25276AQ  26198.18559306  .00003074  00000+0  14232-3 0  9996
2 66704  97.4168 271.4012 0002187 168.8140 191.3144 15.20865208 34998
FLOCK 4H-2              
1 66705U 25276AR  26197.63267674  .00003552  00000+0  16269-3 0  9993
2 66705  97.4165 270.9060 0001612 152.0265 208.1058 15.21133129 34912
FLOCK 4H-3              
1 66706U 25276AS  26197.75517764  .00003711  00000+0  17418-3 0  9999
2 66706  97.4232 270.9507 0002569 239.4240 120.6742 15.20255026 34917
FLOCK 4H-4              
1 66707U 25276AT  26197.79146078  .00003505  00000+0  16567-3 0  9995
2 66707  97.4215 270.8529 0003244 245.6132 114.4765 15.20047567 34917
FLOCK 4H-5              
1 66708U 25276AU  26197.78303866  .00003213  00000+0  14841-3 0  9994
2 66708  97.4165 271.0263 0001478 134.3109 225.8248 15.20913868 34936
FLOCK 4H-6              
1 66709U 25276AV  26198.15834380  .00003383  00000+0  15740-3 0  9994
2 66709  97.4217 271.4397 0002691 196.5129 163.6020 15.20617407 34989
FLOCK 4H-7              
1 66710U 25276AW  26198.14042053  .00003871  00000+0  18082-3 0  9997
2 66710  97.4175 271.1779 0000645 275.3795  84.7367 15.20394322 34971
FLOCK 4H-8              
1 66711U 25276AX  26197.73631606  .00003768  00000+0  17559-3 0  9993
2 66711  97.4214 270.9310 0001903 262.2299  97.8721 15.20499448 34914
FLOCK 4H-9              
1 66712U 25276AY  26197.74981790  .00004227  00000+0  19488-3 0  9991
2 66712  97.4206 271.0394 0002621 206.7437 153.3664 15.20800724 34923
FLOCK 4H-10             
1 66713U 25276AZ  26197.77540223  .00003553  00000+0  16728-3 0  9992
2 66713  97.4183 270.7720 0003020 246.7393 113.3524 15.20174970 34913
FLOCK 4H-11             
1 66714U 25276BA  26197.86288454  .00007587  00000+0  32219-3 0  9992
2 66714  97.4188 271.4596 0001544 234.7865 125.3227 15.23354117 34962
FLOCK 4H-12             
1 66715U 25276BB  26198.19740970  .00003394  00000+0  15695-3 0  9997
2 66715  97.4179 271.4158 0002132 175.7720 184.3534 15.20829700 35302
FLOCK 4H-13             
1 66716U 25276BC  26197.77313793  .00003871  00000+0  17807-3 0  9997
2 66716  97.4213 271.1721 0002029 141.0064 219.1319 15.20929006 34933
FLOCK 4H-14             
1 66717U 25276BD  26197.66735672  .00003735  00000+0  16968-3 0  9996
2 66717  97.4197 271.1152 0001875 140.1346 220.0028 15.21376503 34177
FLOCK 4H-15             
1 66718U 25276BE  26198.13884142  .00003798  00000+0  18003-3 0  9998
2 66718  97.4208 271.1347 0002686 264.6875  95.4054 15.19897337 34967
