{"fetched_at":"2026-07-17T17:37:55.179Z","source":"https://celestrak.org/NORAD/elements/gp.php?GROUP=planet&FORMAT=JSON","constellation":"superdove","records":[{"OBJECT_NAME":"FLOCK 4G-33","OBJECT_ID":"2025-009CE","EPOCH":"2026-07-16T18:18:32.487264","CLASSIFICATION_TYPE":"U","MEAN_MOTION":15.25809428,"ECCENTRICITY":0.00048422,"INCLINATION":97.3942,"RA_OF_ASC_NODE":277.2995,"ARG_OF_PERICENTER":207.7395,"MEAN_ANOMALY":152.3586,"EPHEMERIS_TYPE":0,"NORAD_CAT_ID":62685,"ELEMENT_SET_NO":999,"REV_AT_EPOCH":8331,"BSTAR":0.00013541336,"MEAN_MOTION_DOT":0.0000339,"MEAN_MOTION_DDOT":0},{"OBJECT_NAME":"FLOCK 4H-1","OBJECT_ID":"2025-276AQ","EPOCH":"2026-07-17T04:27:15.240384","CLASSIFICATION_TYPE":"U","MEAN_MOTION":15.20865208,"ECCENTRICITY":0.00021873,"INCLINATION":97.4168,"RA_OF_ASC_NODE":271.4012,"ARG_OF_PERICENTER":168.814,"MEAN_ANOMALY":191.3144,"EPHEMERIS_TYPE":0,"NORAD_CAT_ID":66704,"ELEMENT_SET_NO":999,"REV_AT_EPOCH":3499,"BSTAR":0.00014232154,"MEAN_MOTION_DOT":0.00003074,"MEAN_MOTION_DDOT":0},{"OBJECT_NAME":"FLOCK 4H-2","OBJECT_ID":"2025-276AR","EPOCH":"2026-07-16T15:11:03.270336","CLASSIFICATION_TYPE":"U","MEAN_MOTION":15.21133129,"ECCENTRICITY":0.00016121,"INCLINATION":97.4165,"RA_OF_ASC_NODE":270.906,"ARG_OF_PERICENTER":152.0265,"MEAN_ANOMALY":208.1058,"EPHEMERIS_TYPE":0,"NORAD_CAT_ID":66705,"ELEMENT_SET_NO":999,"REV_AT_EPOCH":3491,"BSTAR":0.00016269349,"MEAN_MOTION_DOT":0.00003552,"MEAN_MOTION_DDOT":0},{"OBJECT_NAME":"FLOCK 4H-3","OBJECT_ID":"2025-276AS","EPOCH":"2026-07-16T18:07:27.348096","CLASSIFICATION_TYPE":"U","MEAN_MOTION":15.20255026,"ECCENTRICITY":0.00025698,"INCLINATION":97.4232,"RA_OF_ASC_NODE":270.9507,"ARG_OF_PERICENTER":239.424,"MEAN_ANOMALY":120.6742,"EPHEMERIS_TYPE":0,"NORAD_CAT_ID":66706,"ELEMENT_SET_NO":999,"REV_AT_EPOCH":3491,"BSTAR":0.00017418476,"MEAN_MOTION_DOT":0.00003711,"MEAN_MOTION_DDOT":0},{"OBJECT_NAME":"FLOCK 4H-4","OBJECT_ID":"2025-276AT","EPOCH":"2026-07-16T18:59:42.211392","CLASSIFICATION_TYPE":"U","MEAN_MOTION":15.20047567,"ECCENTRICITY":0.00032441,"INCLINATION":97.4215,"RA_OF_ASC_NODE":270.8529,"ARG_OF_PERICENTER":245.6132,"MEAN_ANOMALY":114.4765,"EPHEMERIS_TYPE":0,"NORAD_CAT_ID":66707,"ELEMENT_SET_NO":999,"REV_AT_EPOCH":3491,"BSTAR":0.00016567458,"MEAN_MOTION_DOT":0.00003505,"MEAN_MOTION_DDOT":0},{"OBJECT_NAME":"FLOCK 4H-5","OBJECT_ID":"2025-276AU","EPOCH":"2026-07-16T18:47:34.540224","CLASSIFICATION_TYPE":"U","MEAN_MOTION":15.20913868,"ECCENTRICITY":0.00014789,"INCLINATION":97.4165,"RA_OF_ASC_NODE":271.0263,"ARG_OF_PERICENTER":134.3109,"MEAN_ANOMALY":225.8248,"EPHEMERIS_TYPE":0,"NORAD_CAT_ID":66708,"ELEMENT_SET_NO":999,"REV_AT_EPOCH":3493,"BSTAR":0.00014840654,"MEAN_MOTION_DOT":0.00003213,"MEAN_MOTION_DDOT":0},{"OBJECT_NAME":"FLOCK 4H-6","OBJECT_ID":"2025-276AV","EPOCH":"2026-07-17T03:48:00.904320","CLASSIFICATION_TYPE":"U","MEAN_MOTION":15.20617407,"ECCENTRICITY":0.00026918,"INCLINATION":97.4217,"RA_OF_ASC_NODE":271.4397,"ARG_OF_PERICENTER":196.5129,"MEAN_ANOMALY":163.602,"EPHEMERIS_TYPE":0,"NORAD_CAT_ID":66709,"ELEMENT_SET_NO":999,"REV_AT_EPOCH":3498,"BSTAR":0.00015739677,"MEAN_MOTION_DOT":0.00003383,"MEAN_MOTION_DDOT":0},{"OBJECT_NAME":"FLOCK 4H-7","OBJECT_ID":"2025-276AW","EPOCH":"2026-07-17T03:22:12.333792","CLASSIFICATION_TYPE":"U","MEAN_MOTION":15.20394322,"ECCENTRICITY":0.00006459,"INCLINATION":97.4175,"RA_OF_ASC_NODE":271.1779,"ARG_OF_PERICENTER":275.3795,"MEAN_ANOMALY":84.7367,"EPHEMERIS_TYPE":0,"NORAD_CAT_ID":66710,"ELEMENT_SET_NO":999,"REV_AT_EPOCH":3497,"BSTAR":0.00018082476,"MEAN_MOTION_DOT":0.00003871,"MEAN_MOTION_DDOT":0},{"OBJECT_NAME":"FLOCK 4H-8","OBJECT_ID":"2025-276AX","EPOCH":"2026-07-16T17:40:17.707584","CLASSIFICATION_TYPE":"U","MEAN_MOTION":15.20499448,"ECCENTRICITY":0.00019033,"INCLINATION":97.4214,"RA_OF_ASC_NODE":270.931,"ARG_OF_PERICENTER":262.2299,"MEAN_ANOMALY":97.8721,"EPHEMERIS_TYPE":0,"NORAD_CAT_ID":66711,"ELEMENT_SET_NO":999,"REV_AT_EPOCH":3491,"BSTAR":0.00017558899,"MEAN_MOTION_DOT":0.00003768,"MEAN_MOTION_DDOT":0},{"OBJECT_NAME":"FLOCK 4H-9","OBJECT_ID":"2025-276AY","EPOCH":"2026-07-16T17:59:44.266560","CLASSIFICATION_TYPE":"U","MEAN_MOTION":15.20800724,"ECCENTRICITY":0.00026215,"INCLINATION":97.4206,"RA_OF_ASC_NODE":271.0394,"ARG_OF_PERICENTER":206.7437,"MEAN_ANOMALY":153.3664,"EPHEMERIS_TYPE":0,"NORAD_CAT_ID":66712,"ELEMENT_SET_NO":999,"REV_AT_EPOCH":3492,"BSTAR":0.00019487617,"MEAN_MOTION_DOT":0.00004227,"MEAN_MOTION_DDOT":0},{"OBJECT_NAME":"FLOCK 4H-10","OBJECT_ID":"2025-276AZ","EPOCH":"2026-07-16T18:36:34.752672","CLASSIFICATION_TYPE":"U","MEAN_MOTION":15.2017497,"ECCENTRICITY":0.00030205,"INCLINATION":97.4183,"RA_OF_ASC_NODE":270.772,"ARG_OF_PERICENTER":246.7393,"MEAN_ANOMALY":113.3524,"EPHEMERIS_TYPE":0,"NORAD_CAT_ID":66713,"ELEMENT_SET_NO":999,"REV_AT_EPOCH":3491,"BSTAR":0.00016728143,"MEAN_MOTION_DOT":0.00003553,"MEAN_MOTION_DDOT":0},{"OBJECT_NAME":"FLOCK 4H-11","OBJECT_ID":"2025-276BA","EPOCH":"2026-07-16T20:42:33.224256","CLASSIFICATION_TYPE":"U","MEAN_MOTION":15.23354117,"ECCENTRICITY":0.00015448,"INCLINATION":97.4188,"RA_OF_ASC_NODE":271.4596,"ARG_OF_PERICENTER":234.7865,"MEAN_ANOMALY":125.3227,"EPHEMERIS_TYPE":0,"NORAD_CAT_ID":66714,"ELEMENT_SET_NO":999,"REV_AT_EPOCH":3496,"BSTAR":0.00032218884,"MEAN_MOTION_DOT":0.00007587,"MEAN_MOTION_DDOT":0},{"OBJECT_NAME":"FLOCK 4H-12","OBJECT_ID":"2025-276BB","EPOCH":"2026-07-17T04:44:16.198080","CLASSIFICATION_TYPE":"U","MEAN_MOTION":15.208297,"ECCENTRICITY":0.00021322,"INCLINATION":97.4179,"RA_OF_ASC_NODE":271.4158,"ARG_OF_PERICENTER":175.772,"MEAN_ANOMALY":184.3534,"EPHEMERIS_TYPE":0,"NORAD_CAT_ID":66715,"ELEMENT_SET_NO":999,"REV_AT_EPOCH":3530,"BSTAR":0.00015694734,"MEAN_MOTION_DOT":0.00003394,"MEAN_MOTION_DDOT":0},{"OBJECT_NAME":"FLOCK 4H-13","OBJECT_ID":"2025-276BC","EPOCH":"2026-07-16T18:33:19.117152","CLASSIFICATION_TYPE":"U","MEAN_MOTION":15.20929006,"ECCENTRICITY":0.00020292,"INCLINATION":97.4213,"RA_OF_ASC_NODE":271.1721,"ARG_OF_PERICENTER":141.0064,"MEAN_ANOMALY":219.1319,"EPHEMERIS_TYPE":0,"NORAD_CAT_ID":66716,"ELEMENT_SET_NO":999,"REV_AT_EPOCH":3493,"BSTAR":0.000178071,"MEAN_MOTION_DOT":0.00003871,"MEAN_MOTION_DDOT":0},{"OBJECT_NAME":"FLOCK 4H-14","OBJECT_ID":"2025-276BD","EPOCH":"2026-07-16T16:00:59.620608","CLASSIFICATION_TYPE":"U","MEAN_MOTION":15.21376503,"ECCENTRICITY":0.0001875,"INCLINATION":97.4197,"RA_OF_ASC_NODE":271.1152,"ARG_OF_PERICENTER":140.1346,"MEAN_ANOMALY":220.0028,"EPHEMERIS_TYPE":0,"NORAD_CAT_ID":66717,"ELEMENT_SET_NO":999,"REV_AT_EPOCH":3417,"BSTAR":0.00016968218,"MEAN_MOTION_DOT":0.00003735,"MEAN_MOTION_DDOT":0},{"OBJECT_NAME":"FLOCK 4H-15","OBJECT_ID":"2025-276BE","EPOCH":"2026-07-17T03:19:55.898688","CLASSIFICATION_TYPE":"U","MEAN_MOTION":15.19897337,"ECCENTRICITY":0.00026864,"INCLINATION":97.4208,"RA_OF_ASC_NODE":271.1347,"ARG_OF_PERICENTER":264.6875,"MEAN_ANOMALY":95.4054,"EPHEMERIS_TYPE":0,"NORAD_CAT_ID":66718,"ELEMENT_SET_NO":999,"REV_AT_EPOCH":3496,"BSTAR":0.00018003024,"MEAN_MOTION_DOT":0.00003798,"MEAN_MOTION_DDOT":0}]}
